[{"OBJECT_NAME":"SAOCOM 1A","OBJECT_ID":"2018-076A","EPOCH":"2026-03-09T23:06:42.673824","MEAN_MOTION":14.82173643,"ECCENTRICITY":0.0001339,"INCLINATION":97.8895,"RA_OF_ASC_NODE":257.1316,"ARG_OF_PERICENTER":83.6952,"MEAN_ANOMALY":276.4413,"EPHEMERIS_TYPE":0,"CLASSIFICATION_TYPE":"U","NORAD_CAT_ID":43641,"ELEMENT_SET_NO":999,"REV_AT_EPOCH":40140,"BSTAR":0.00017043,"MEAN_MOTION_DOT":1.305e-5,"MEAN_MOTION_DDOT":0},{"OBJECT_NAME":"H-2A R/B","OBJECT_ID":"2018-084L","EPOCH":"2026-03-10T13:50:33.656352","MEAN_MOTION":15.41390798,"ECCENTRICITY":0.0025388,"INCLINATION":98.8729,"RA_OF_ASC_NODE":287.1541,"ARG_OF_PERICENTER":22.2756,"MEAN_ANOMALY":337.9583,"EPHEMERIS_TYPE":0,"CLASSIFICATION_TYPE":"U","NORAD_CAT_ID":43682,"ELEMENT_SET_NO":999,"REV_AT_EPOCH":40591,"BSTAR":0.0005579,"MEAN_MOTION_DOT":0.00023504,"MEAN_MOTION_DDOT":0},{"OBJECT_NAME":"SAOCOM 1B","OBJECT_ID":"2020-059A","EPOCH":"2026-03-10T19:18:19.036800","MEAN_MOTION":14.82149543,"ECCENTRICITY":0.0001361,"INCLINATION":97.8894,"RA_OF_ASC_NODE":257.0587,"ARG_OF_PERICENTER":85.6378,"MEAN_ANOMALY":274.4991,"EPHEMERIS_TYPE":0,"CLASSIFICATION_TYPE":"U","NORAD_CAT_ID":46265,"ELEMENT_SET_NO":999,"REV_AT_EPOCH":29891,"BSTAR":0.00013051,"MEAN_MOTION_DOT":9.87e-6,"MEAN_MOTION_DDOT":0},{"OBJECT_NAME":"CSS (TIANHE)","OBJECT_ID":"2021-035A","EPOCH":"2026-03-10T19:16:55.378272","MEAN_MOTION":15.60727089,"ECCENTRICITY":0.0006965,"INCLINATION":41.4661,"RA_OF_ASC_NODE":201.385,"ARG_OF_PERICENTER":279.9751,"MEAN_ANOMALY":80.0301,"EPHEMERIS_TYPE":0,"CLASSIFICATION_TYPE":"U","NORAD_CAT_ID":48274,"ELEMENT_SET_NO":999,"REV_AT_EPOCH":27778,"BSTAR":0.00036544,"MEAN_MOTION_DOT":0.0003107,"MEAN_MOTION_DDOT":0},{"OBJECT_NAME":"COSMOS 2550","OBJECT_ID":"2021-056A","EPOCH":"2026-03-10T21:16:49.824192","MEAN_MOTION":15.33830688,"ECCENTRICITY":0.0008424,"INCLINATION":67.1455,"RA_OF_ASC_NODE":37.3105,"ARG_OF_PERICENTER":269.5139,"MEAN_ANOMALY":90.505,"EPHEMERIS_TYPE":0,"CLASSIFICATION_TYPE":"U","NORAD_CAT_ID":48865,"ELEMENT_SET_NO":999,"REV_AT_EPOCH":26364,"BSTAR":1.0455e-7,"MEAN_MOTION_DOT":-1.88e-6,"MEAN_MOTION_DDOT":0},{"OBJECT_NAME":"CZ-2C R/B","OBJECT_ID":"2022-058K","EPOCH":"2026-03-10T20:41:55.101984","MEAN_MOTION":15.54329548,"ECCENTRICITY":0.0042139,"INCLINATION":50.1895,"RA_OF_ASC_NODE":312.2564,"ARG_OF_PERICENTER":205.8829,"MEAN_ANOMALY":154.0034,"EPHEMERIS_TYPE":0,"CLASSIFICATION_TYPE":"U","NORAD_CAT_ID":52794,"ELEMENT_SET_NO":999,"REV_AT_EPOCH":21031,"BSTAR":0.0005818,"MEAN_MOTION_DOT":0.00040089,"MEAN_MOTION_DDOT":0},{"OBJECT_NAME":"CZ-2C R/B","OBJECT_ID":"2022-132E","EPOCH":"2026-03-10T12:35:50.419968","MEAN_MOTION":15.61920631,"ECCENTRICITY":0.0020627,"INCLINATION":97.2967,"RA_OF_ASC_NODE":72.8671,"ARG_OF_PERICENTER":88.6324,"MEAN_ANOMALY":271.7296,"EPHEMERIS_TYPE":0,"CLASSIFICATION_TYPE":"U","NORAD_CAT_ID":54039,"ELEMENT_SET_NO":999,"REV_AT_EPOCH":19050,"BSTAR":0.00050113,"MEAN_MOTION_DOT":0.00044069,"MEAN_MOTION_DDOT":0},{"OBJECT_NAME":"GSLV R/B","OBJECT_ID":"2022-138AN","EPOCH":"2026-03-10T18:58:20.146944","MEAN_MOTION":14.9678371,"ECCENTRICITY":0.0023121,"INCLINATION":87.3873,"RA_OF_ASC_NODE":165.9935,"ARG_OF_PERICENTER":142.93,"MEAN_ANOMALY":217.3534,"EPHEMERIS_TYPE":0,"CLASSIFICATION_TYPE":"U","NORAD_CAT_ID":54149,"ELEMENT_SET_NO":999,"REV_AT_EPOCH":18409,"BSTAR":0.00033937,"MEAN_MOTION_DOT":3.93e-5,"MEAN_MOTION_DDOT":0},{"OBJECT_NAME":"XRISM","OBJECT_ID":"2023-137A","EPOCH":"2026-03-10T13:33:47.981952","MEAN_MOTION":15.11513445,"ECCENTRICITY":0.0007984,"INCLINATION":31.0015,"RA_OF_ASC_NODE":278.0015,"ARG_OF_PERICENTER":47.3148,"MEAN_ANOMALY":312.8162,"EPHEMERIS_TYPE":0,"CLASSIFICATION_TYPE":"U","NORAD_CAT_ID":57800,"ELEMENT_SET_NO":999,"REV_AT_EPOCH":13792,"BSTAR":0.00035953,"MEAN_MOTION_DOT":6.343e-5,"MEAN_MOTION_DDOT":0},{"OBJECT_NAME":"ACS3","OBJECT_ID":"2024-077B","EPOCH":"2026-03-10T10:25:00.083136","MEAN_MOTION":13.89631389,"ECCENTRICITY":0.006009,"INCLINATION":97.2065,"RA_OF_ASC_NODE":10.3783,"ARG_OF_PERICENTER":74.8665,"MEAN_ANOMALY":285.9135,"EPHEMERIS_TYPE":0,"CLASSIFICATION_TYPE":"U","NORAD_CAT_ID":59588,"ELEMENT_SET_NO":999,"REV_AT_EPOCH":9430,"BSTAR":0.013462,"MEAN_MOTION_DOT":0.00016735,"MEAN_MOTION_DDOT":0},{"OBJECT_NAME":"SZ-21 MODULE","OBJECT_ID":"2025-246C","EPOCH":"2026-03-10T09:24:12.314880","MEAN_MOTION":15.68612654,"ECCENTRICITY":0.0001321,"INCLINATION":41.4733,"RA_OF_ASC_NODE":199.0379,"ARG_OF_PERICENTER":300.4317,"MEAN_ANOMALY":59.6394,"EPHEMERIS_TYPE":0,"CLASSIFICATION_TYPE":"U","NORAD_CAT_ID":66515,"ELEMENT_SET_NO":999,"REV_AT_EPOCH":1818,"BSTAR":0.00039495,"MEAN_MOTION_DOT":0.00046134,"MEAN_MOTION_DDOT":0}]
